GLOBALSTAR M045         
1 25676U 99019A   25207.37549954 -.00000102  00000+0 -71498-4 0  9993
2 25676  51.9941 193.5741 0000395 312.4739 157.2250 12.27064428198447
GLOBALSTAR M019         
1 25677U 99019B   25207.54818844 -.00000043  00000+0  49166-3 0  9999
2 25677  51.9901 326.2184 0001593  70.5397  11.6115 12.13875466190119
GLOBALSTAR M044         
1 25678U 99019C   25207.22418516 -.00000106  00000+0 -31499-3 0  9998
2 25678  51.9972 283.3658 0006450 118.5667 275.5692 11.90254149175956
GLOBALSTAR M042         
1 25679U 99019D   25206.77493932 -.00000041  00000+0  48538-3 0  9992
2 25679  52.0026 302.0224 0002821  30.6879 142.2979 12.22084597189973
GLOBALSTAR M025         
1 25770U 99031A   25207.06792017 -.00000044  00000+0  72259-3 0  9997
2 25770  51.9827  69.2014 0001098 199.3202 334.6966 11.22561876143735
GLOBALSTAR M049         
1 25771U 99031B   25206.90816684 -.00000036  00000+0  10223-2 0  9990
2 25771  51.9876 106.2817 0003441  65.6567 294.4588 11.12117381121732
GLOBALSTAR M047         
1 25772U 99031C   25206.91635444 -.00000057  00000+0  35752-3 0  9993
2 25772  51.9835  99.5321 0016717 331.6233  28.3661 11.31929102475492
GLOBALSTAR M052         
1 25773U 99031D   25206.31454907 -.00000088  00000+0 -74060-3 0  9991
2 25773  51.9824 215.7648 0002893 240.7447 131.9609 11.15060108482767
